name,phone,email,region,country,numberrange,postalZip,address,list
Abdul Ballard,1-336-272-7567,nonummy.ac@google.com,Hamburg,Canada,5,86-27,9741 Porttitor St.,1
Abel Richards,1-668-807-2134,vel.venenatis@outlook.edu,Punjab,Norway,4,11-523,8848 Tellus Ave,11
Abra Duran,(264) 495-0921,dui.cum@icloud.ca,Kujawsko-pomorskie,France,6,871432,480-7248 Libero. Av.,9
Abra Puckett,(442) 230-9269,nunc.sed@outlook.com,Piura,South Africa,5,8572,"P.O. Box 313, 7901 Rutrum St.",15
Adele Guy,(332) 354-3538,blandit.mattis.cras@outlook.couk,Smolensk Oblast,Costa Rica,2,28972,"P.O. Box 569, 838 Sapien Rd.",15
Adria Hensley,1-693-896-8266,libero@icloud.ca,Baja California,Indonesia,2,6526 WF,8052 Turpis. Ave,7
Adrian Dennis,1-822-678-6516,pellentesque@hotmail.couk,Upper Austria,Russian Federation,8,43296,214-7605 Sed Ave,9
Adrienne Burke,1-218-111-7110,elit@yahoo.ca,Córdoba,Indonesia,2,A7B 1Y7,Ap #640-5542 Habitant Avenue,9
Adrienne Reyes,1-844-218-6755,amet.dapibus.id@aol.couk,Mazowieckie,Australia,2,112496,"Ap #835-1106 Luctus, Ave",3
Ahmed Emerson,(645) 747-1450,justo.proin@hotmail.ca,łódzkie,Nigeria,5,CC6D 7AW,"P.O. Box 667, 1047 Lectus St.",9
Aileen Finch,(455) 309-0886,mollis@google.org,Oaxaca,Poland,2,21735,Ap #738-2529 Ut Rd.,7
Ainsley Knowles,1-978-761-6858,velit.eu@google.org,Southeast Sulawesi,Germany,8,77-051,"P.O. Box 872, 880 Erat. Rd.",1
Aladdin Quinn,(465) 504-7568,ut.nec.urna@yahoo.org,North Jeolla,Belgium,8,R9N 2W7,"P.O. Box 821, 362 Euismod Rd.",5
Alan Baird,1-126-269-6556,in.lorem@yahoo.couk,Manitoba,Australia,5,14043,Ap #136-617 Facilisis Rd.,11
Alan Jennings,1-841-466-2352,erat.sed@protonmail.com,La Libertad,Philippines,2,64312,Ap #973-3040 Mauris Road,15
Alden Steele,(767) 589-1428,semper.cursus.integer@outlook.com,Northwest Territories,Nigeria,7,344791,"660-9515 Eu, Rd.",9
Alea Stanley,1-822-152-8160,dis.parturient@outlook.couk,Adana,Costa Rica,10,74855,9825 Porttitor Ave,5
Alexander Browning,(421) 516-2454,enim.gravida@protonmail.edu,Guanacaste,Vietnam,5,50115,302-3699 Nunc St.,5
Alexander Huffman,1-960-277-6527,nec.enim@google.com,Henegouwen,Norway,1,585051,"797-3535 Ante, St.",13
Alexandra Parks,1-315-482-5848,vitae@hotmail.net,Munster,New Zealand,2,25863,3503 Neque St.,1
Alfonso Rose,(644) 748-4637,commodo.auctor.velit@icloud.com,Møre og Romsdal,Austria,8,414005,"P.O. Box 162, 360 Conubia Road",17
Alfreda Combs,1-562-524-6105,donec.at.arcu@outlook.ca,Podlaskie,Costa Rica,1,306362,589-3524 Luctus Rd.,9
Alisa English,(247) 587-8756,parturient.montes@yahoo.couk,Bahia,Ukraine,1,96461,Ap #248-769 Sit St.,13
Alisa Freeman,(721) 528-2147,ac.feugiat.non@icloud.couk,Riau,Philippines,7,638521,188-7988 A Street,5
Allegra Harrington,(162) 425-5314,duis.elementum@outlook.couk,Agder,Vietnam,4,83-66,6150 Orci. Av.,19
Allen Jordan,(965) 797-5723,non@aol.com,Vinnytsia oblast,Nigeria,5,27981,Ap #295-7186 Nulla Avenue,3
Amber Haley,1-869-732-0976,sem.vitae@icloud.net,Novosibirsk Oblast,Nigeria,1,9848,3456 Sit Street,17
Amity May,(131) 680-2826,nisi.nibh@outlook.couk,Borno,South Korea,4,918733,"P.O. Box 805, 6827 In St.",19
Amos Davidson,1-736-231-2526,vitae@google.edu,Aisén,Chile,3,24609,528-8234 Volutpat Avenue,1
Amy Wright,1-221-207-5738,rhoncus.proin@google.com,South Jeolla,Germany,5,38278,844-5596 Tincidunt Rd.,3
Anika Garrison,(973) 869-6137,non.enim.commodo@outlook.org,South Chungcheong,United Kingdom,8,7042-2542,4400 Vestibulum. Av.,17
Anjolie Gordon,(778) 323-8039,mauris@yahoo.couk,Henegouwen,Ireland,5,01186-23881,139-6838 Nunc. Ave,1
Ann Doyle,(383) 515-1924,lorem.tristique.aliquet@outlook.ca,Vichada,Costa Rica,3,9247,423-7627 Eleifend Ave,3
April Delgado,1-674-153-3179,ridiculus.mus.donec@aol.org,Piemonte,France,9,908218,Ap #570-9118 Id Av.,5
Ariel Pearson,1-647-460-6465,vel@aol.net,Drenthe,Singapore,10,64518,"469-4368 Ac, St.",7
Ariel Shelton,1-955-154-6213,duis.elementum.dui@google.com,Queensland,Canada,9,41615,"P.O. Box 204, 1339 At Rd.",11
Arsenio Andrews,(213) 637-3263,in@outlook.net,Valle del Cauca,United States,7,30701,3654 Vestibulum. St.,15
Arthur Lynch,(351) 620-9499,erat@icloud.net,Arica y Parinacota,United States,4,J26 7YZ,Ap #666-6560 Ut Avenue,13
Ashton Walker,1-246-657-5308,sollicitudin.commodo.ipsum@outlook.couk,Zamboanga Peninsula,Mexico,2,2358,Ap #567-1021 Curabitur St.,7
Athena Lynch,1-323-722-7301,ipsum.dolor@yahoo.edu,Troms og Finnmark,Australia,6,10625,Ap #736-8439 Metus Av.,15
Audra English,1-722-685-1601,amet.faucibus@aol.com,La Libertad,Ireland,1,46758,"Ap #388-7296 Ac, Ave",15
August Mclaughlin,1-515-766-5776,sed.libero.proin@aol.edu,Ulster,Pakistan,4,887365,Ap #166-1154 Integer Avenue,15
August Trujillo,(668) 726-4281,sem.semper.erat@hotmail.edu,Overijssel,Sweden,8,11616,Ap #968-2629 Tincidunt St.,17
Aurora Dominguez,(830) 891-3421,tortor.nibh.sit@hotmail.com,South Australia,Costa Rica,9,10314,"P.O. Box 412, 3960 Non St.",9
Axel Stokes,1-312-356-6554,mauris@icloud.com,North Region,Turkey,0,16751,"P.O. Box 353, 6573 Auctor Avenue",3
Baker Rowland,(783) 905-6765,diam.luctus.lobortis@google.org,Luxemburg,Indonesia,6,52176,729-9238 Donec St.,15
Baker Wheeler,1-972-737-3727,quis.urna@google.couk,Mykolaiv oblast,Pakistan,9,1789,"P.O. Box 885, 3050 Eleifend Rd.",17
Barrett Landry,(324) 837-6118,pellentesque.tincidunt@google.edu,Podkarpackie,Belgium,7,63217,729-1378 Aenean Av.,13
Barry Holland,(563) 475-6781,penatibus.et@yahoo.ca,San José,Philippines,9,9814-2168,"P.O. Box 852, 144 Urna, St.",1
Basia Matthews,1-302-781-8995,rutrum.lorem.ac@aol.couk,Zhōngnán,Pakistan,5,49N 3T4,425-6623 Ultrices St.,9
Basia Meyers,1-556-521-7258,eget.magna.suspendisse@google.org,Huádōng,Canada,8,33743017,818-9100 Cursus Avenue,13
Basil Ayers,1-864-855-0323,et@hotmail.ca,Victoria,South Africa,2,306633,Ap #894-9062 Metus Ave,15
Beau Keith,(747) 650-4236,tristique@hotmail.com,Free State,Ukraine,5,7486 KQ,"Ap #906-5034 Sed, St.",7
Beck Patel,1-284-736-5012,mauris.nulla@aol.ca,Mersin,Costa Rica,9,30655,Ap #785-1022 Nibh St.,9
Bell Nelson,(873) 471-6408,felis.nulla.tempor@hotmail.net,Risaralda,United States,2,4594,9850 Nisi. Street,15
Belle Cochran,(212) 302-2562,urna.vivamus@hotmail.couk,Ceará,Nigeria,8,449183,Ap #702-3215 Mus. St.,19
Belle Harrison,1-392-854-6556,eget.ipsum@aol.com,Trà Vinh,Spain,7,99515,267-802 Dictum Av.,9
Bert Morris,1-157-222-9334,dolor.quisque@outlook.net,Tabasco,Indonesia,1,7405,Ap #917-4824 Blandit Avenue,7
Beverly Pace,(788) 741-2148,a.felis@outlook.edu,Huáběi,Costa Rica,5,11815-26227,9728 Amet Avenue,15
Bo Barker,1-318-117-7441,feugiat.sed@hotmail.edu,West Sulawesi,Nigeria,1,7688-7022,750-9114 Dignissim. Rd.,9
Bo Gonzalez,1-128-119-6355,enim@hotmail.edu,Papua,Austria,10,24161,"P.O. Box 107, 8905 Suscipit Rd.",13
Boris Ryan,(464) 580-3711,vitae.purus@protonmail.net,Overijssel,Australia,9,42845,Ap #491-2821 Ut Ave,7
Bradley Mccarty,1-571-613-7071,in.lorem.donec@protonmail.net,Ankara,Vietnam,2,0337,Ap #966-1336 Eget Road,3
Bradley Tucker,(658) 351-6546,nunc@outlook.edu,Western Cape,Indonesia,1,196961,484-3666 Luctus Av.,13
Branden Ratliff,(618) 367-3212,phasellus.nulla@yahoo.couk,North-East Region,United States,8,32276-74339,"P.O. Box 357, 2525 Interdum. St.",3
Brandon Solis,(251) 834-1478,aptent.taciti@yahoo.com,Aisén,Philippines,5,30600,Ap #157-6255 Eu Rd.,17
Brent Lyons,(982) 314-3775,nec.diam.duis@icloud.net,South Island,Singapore,8,12818,Ap #978-2779 Nulla St.,17
Brett Battle,(753) 690-1948,phasellus.nulla.integer@aol.edu,Hamburg,Pakistan,6,13570,Ap #212-5097 Ipsum Road,13
Brett Warner,1-365-574-5079,aliquam@outlook.ca,East Region,Poland,2,91335,Ap #578-6585 Malesuada Avenue,1
Brian Spears,(761) 307-2481,non.dui.nec@aol.edu,Loreto,India,9,86112,Ap #105-7237 Tortor. Rd.,19
Brianna Hoover,1-955-175-9898,lacus.varius.et@aol.couk,Gyeonggi,China,4,165325,"P.O. Box 587, 8884 Class Ave",9
Brittany Cole,1-644-765-8746,vitae.sodales.nisi@protonmail.edu,Minas Gerais,Australia,5,917242,Ap #993-2150 Donec Rd.,1
Brody Mcfarland,1-824-653-2827,phasellus.nulla.integer@yahoo.com,Aragón,South Korea,5,8122-8611,Ap #412-2741 Proin Rd.,13
Brody Wood,(875) 876-4375,enim.nisl@protonmail.ca,Chocó,Netherlands,4,02401,Ap #819-1901 Ultrices Ave,11
Bruce Ball,1-533-571-6661,vel@outlook.net,Maule,United Kingdom,8,4177,715-513 Auctor Avenue,17
Bruce Casey,(763) 869-2733,mauris@yahoo.org,Veneto,Italy,10,34866671,Ap #881-6605 Augue Street,7
Buckminster Rojas,1-531-590-7044,proin.velit@icloud.edu,Quảng Bình,Pakistan,4,71948,Ap #404-303 Ipsum Ave,15
Buffy Frank,1-815-647-1645,leo@aol.com,Noord Brabant,Colombia,1,875348,"P.O. Box 103, 1871 Justo. Rd.",13
Burke Melton,(456) 721-1129,sagittis.augue@outlook.org,Jalisco,South Africa,3,35357,374-4520 Sollicitudin St.,17
Burke Petersen,1-445-132-0797,mauris.ut@google.edu,Hải Phòng,Netherlands,7,59L 5K3,Ap #881-3159 Eu Street,1
Burton Mcmillan,(845) 862-7453,tellus.aenean@aol.ca,Buteshire,Ukraine,7,4661,Ap #595-4803 Non Avenue,11
Byron Strong,1-888-652-3178,tincidunt@google.com,Kano,South Africa,4,650862,Ap #310-2559 Magna Road,7
Caesar Copeland,1-846-236-0622,adipiscing.lacus@hotmail.edu,Östergötlands län,Australia,6,188391,8247 Egestas. Rd.,9
Caldwell Haynes,1-778-966-8432,malesuada.vel.convallis@outlook.couk,Liguria,Chile,5,775837,"P.O. Box 976, 6524 Velit Rd.",11
Callum Goodman,(134) 553-6987,ridiculus.mus.aenean@protonmail.couk,North Region,Ukraine,6,2443,703-4429 Praesent Road,13
Camilla Ball,1-621-906-7843,duis.volutpat@outlook.edu,Rio de Janeiro,Russian Federation,6,291253,Ap #815-3204 Erat Street,1
Candice Douglas,(712) 928-5445,auctor.quis.tristique@yahoo.com,West Nusa Tenggara,Costa Rica,9,59254,Ap #916-1279 Lorem St.,5
Cara Grant,1-631-352-2006,eleifend.nec.malesuada@google.org,Troms og Finnmark,Nigeria,2,838525,"317-6153 Non, St.",5
Cara Sloan,1-792-662-4202,quam@protonmail.net,Limburg,Indonesia,2,823634,170-2098 Lorem St.,19
Carissa Davenport,(731) 314-3649,elementum@icloud.ca,San José,Poland,9,42485,908-1271 Dictum. Street,13
Carla Mann,(847) 359-8800,luctus.felis@protonmail.couk,Zuid Holland,Brazil,3,370265,Ap #747-9610 Fusce St.,1
Caryn Moses,(645) 334-7316,eget.mollis@aol.edu,Zuid Holland,Turkey,3,782428,Ap #564-1072 Ipsum. St.,5
Castor Lara,(519) 802-2740,est.mauris@yahoo.org,Lagos,Mexico,2,3161,744-9640 Est Road,7
Celeste Munoz,1-113-515-8749,mauris.vestibulum@icloud.edu,Aragón,Colombia,7,633128,Ap #591-4251 Malesuada Av.,5
Chadwick Anthony,1-803-288-1516,pharetra.quisque.ac@google.org,Chelyabinsk Oblast,South Korea,4,263913,Ap #641-4031 Arcu Avenue,9
Chadwick Callahan,(378) 632-4821,torquent.per@protonmail.couk,Pará,Chile,4,54755-818,313-932 Orci St.,7
Chadwick Vance,1-434-826-6096,ligula.aenean@google.com,Querétaro,Italy,3,9458 FS,Ap #101-9718 Ultrices. St.,5
Channing Harrison,(765) 235-2987,sociis.natoque.penatibus@yahoo.org,East Region,Canada,6,T7S 5Z8,"P.O. Box 227, 3125 Mi Avenue",7
Channing Santana,1-834-551-2812,non.ante.bibendum@icloud.com,KwaZulu-Natal,Chile,2,132310,Ap #601-172 Suspendisse Rd.,5
Chava Wheeler,1-858-865-6278,sociosqu.ad@protonmail.edu,Kirkcudbrightshire,Poland,2,974996,"P.O. Box 221, 5547 Mi Ave",11
Cheyenne Rosa,(845) 484-3917,luctus.et@hotmail.com,Swiętokrzyskie,Austria,7,433327,Ap #299-876 Habitant Rd.,5
Chloe Herring,(666) 723-3742,tincidunt.congue@aol.com,Novosibirsk Oblast,Germany,1,81235,"P.O. Box 274, 1384 Egestas, Avenue",1
Chloe Rush,(735) 869-5175,quam.a@outlook.com,Östergötlands län,Indonesia,5,11176,"P.O. Box 338, 6918 Praesent Road",13
Christine Francis,(778) 975-1948,fusce.fermentum.fermentum@hotmail.couk,Sachsen,South Korea,7,80283,"P.O. Box 853, 4546 Mauris Av.",13
Christine Haynes,1-149-525-7554,nulla.donec@google.net,Florida,Australia,8,93181,130-7578 Auctor Av.,9
Claire Lynn,(816) 952-5337,et.euismod@google.org,Karnataka,Ireland,3,3766 NI,751-3440 Ut Av.,13
Clayton Morrison,(823) 720-2110,accumsan.laoreet@icloud.net,Vlaams-Brabant,Mexico,9,39827,"Ap #975-5693 Amet, St.",13
Clayton Robertson,(671) 132-1139,nisi.aenean@aol.org,South Island,Poland,2,723568,1633 Nulla St.,5
Clementine Horton,1-945-502-2898,amet.nulla@google.net,Morayshire,Pakistan,7,612364,960-8438 Nec Av.,7
Clinton Callahan,(117) 293-1493,lorem@icloud.ca,Ankara,Singapore,3,53361,"459-6635 Sed, Road",1
Cody Melendez,(423) 940-4468,curabitur.vel@icloud.ca,Dōngběi,Singapore,3,5417,694-8975 Lacus. Street,13
Colette Whitehead,(371) 391-2217,et@google.org,Sicilia,United Kingdom,9,8884,6258 Aliquam Rd.,7
Constance Solomon,(572) 964-7154,auctor.non@yahoo.net,Luik,Canada,6,47243,Ap #366-108 Faucibus Rd.,7
Cooper Acevedo,1-440-869-4763,non@google.edu,Yukon,Turkey,5,00430,867-6391 Scelerisque St.,3
Cooper Blackwell,1-531-266-7288,lacinia@google.edu,Vestfold og Telemark,Austria,8,5587,7620 Et Street,13
Cullen Alston,1-724-161-2023,ut.semper@icloud.ca,Hamburg,Austria,10,22-356,8077 Placerat. Av.,5
Curran Spears,1-776-374-5455,commodo@google.edu,Osun,United Kingdom,2,6601,1617 Scelerisque Road,17
Cyrus Santana,1-279-614-7725,volutpat@hotmail.org,Kujawsko-pomorskie,Brazil,1,7402,Ap #386-1591 Sem St.,11
Damian Moore,1-612-639-4889,ac.metus@icloud.net,Central Region,Belgium,1,9344,Ap #190-9796 Volutpat Road,11
Damon Valentine,(471) 566-7258,est.nunc.laoreet@google.edu,Puntarenas,Costa Rica,9,UI7 7HD,737-5048 Arcu Rd.,9
Dana Lawson,(745) 411-1861,duis.ac.arcu@hotmail.org,Östergötlands län,Belgium,4,716891,Ap #964-4553 Tincidunt St.,17
Dana Love,1-641-135-1315,lectus.justo@aol.ca,Luxemburg,Netherlands,7,4759,Ap #501-9740 Lacus. Avenue,9
Dane Murray,(430) 277-7574,ipsum.sodales.purus@protonmail.edu,Veneto,South Korea,5,2762-5222,7294 Nec St.,17
Darius Diaz,1-132-521-3122,vivamus.nibh@google.com,Manisa,France,4,4314,Ap #401-5407 Rhoncus. Av.,1
Dean Rose,(381) 634-4892,quam.curabitur@yahoo.couk,Nordland,Russian Federation,10,44822,"P.O. Box 905, 1243 Class St.",19
Deborah Carr,1-658-612-2010,blandit.enim@protonmail.ca,Benue,Sweden,7,817086,Ap #422-792 Integer Street,9
Deborah Roy,(977) 474-3148,pellentesque@aol.net,Nord-Pas-de-Calais,Turkey,9,62-48,254-1358 Vitae Rd.,3
Debra Dawson,(631) 541-7437,eget.ipsum@icloud.ca,Ankara,Costa Rica,2,32654,Ap #622-6181 Ipsum St.,3
Declan Daniel,1-741-765-8836,quam@icloud.edu,Nordland,France,3,0468 OX,3311 Pellentesque Rd.,17
Demetrius Jennings,1-243-631-2364,orci.luctus@hotmail.ca,Special Capital Region of Jakarta,United States,5,84-73,"P.O. Box 112, 7743 Turpis. Road",1
Demetrius Valenzuela,1-472-312-4725,enim.gravida@yahoo.org,South Island,Belgium,9,438270,655-7901 Purus. Avenue,13
Dennis Sosa,(633) 575-3038,aliquam.ornare@yahoo.org,Kano,Belgium,9,2146,"P.O. Box 716, 6146 Blandit Street",7
Dolan Durham,1-545-967-3261,eu.elit@hotmail.net,Castilla y León,Australia,3,65456-841,223-8231 At Avenue,13
Dolan Justice,1-852-567-7662,commodo.at@hotmail.couk,Tomsk Oblast,Philippines,2,862733,6582 Suspendisse Rd.,9
Dominique Atkins,(462) 584-2424,augue.id@outlook.couk,Puebla,Pakistan,7,1569-8588,Ap #375-9105 Commodo Road,13
Donna Wilder,(403) 327-1048,dictum.ultricies@hotmail.org,Gangwon,Nigeria,3,6411,Ap #255-131 Nunc Av.,5
Donovan Gillespie,1-523-939-8582,quis.massa@icloud.ca,Western Cape,South Africa,0,7105-3672,231-8489 Tempus Ave,1
Dylan Bullock,1-253-731-6543,ligula.donec.luctus@icloud.com,Mazowieckie,Indonesia,7,5774,"Ap #252-2646 Vulputate, Street",9
Dylan Cox,(664) 119-7114,ac.orci@outlook.edu,Luxemburg,Russian Federation,6,4884,9857 Nonummy Rd.,19
Eaton Hendricks,1-777-228-4642,faucibus.ut.nulla@yahoo.couk,Meta,South Korea,9,8533 ZX,Ap #903-1334 Mauris Rd.,7
Eleanor Wagner,(322) 593-8784,aliquam.iaculis@outlook.net,Central Region,Turkey,2,S4 8HS,"443-7022 Nec, Rd.",15
Elliott Harper,1-471-672-5872,et@hotmail.com,Lampung,Germany,5,14648,"P.O. Box 267, 7813 Odio Rd.",15
Elton King,1-193-535-6871,sapien.aenean@icloud.com,Rivers,France,2,15449,586-7332 Neque Ave,15
Elton Mason,1-224-609-3821,metus.vivamus@outlook.net,Eastern Visayas,Nigeria,7,7089-3356,371-3169 Diam Av.,19
Elvis Landry,1-748-117-2769,fringilla@protonmail.ca,Putumayo,Germany,3,825637,701-3088 Proin Rd.,19
Emily Barber,1-535-445-9058,imperdiet@yahoo.couk,Midi-Pyrénées,Norway,8,88-235,980-118 Sem Rd.,13
Emmanuel Sanchez,(158) 448-2552,justo.sit.amet@google.ca,Campania,Spain,8,86586,"P.O. Box 727, 5559 Libero. Rd.",13
Eric Bolton,1-724-943-9644,curae.phasellus@yahoo.couk,Limburg,Peru,8,978177,800-6304 Conubia Avenue,15
Ethan Reyes,(398) 784-5258,cras@yahoo.org,Sơn La,South Korea,2,615991,894-1061 Luctus Ave,17
Eugenia Aguilar,1-641-226-0546,mi@icloud.edu,Alajuela,Chile,8,50261,Ap #745-8608 Nec Street,3
Evangeline Cantrell,1-184-318-3220,in.nec@outlook.net,Kerala,Vietnam,7,51211,Ap #199-9361 Accumsan St.,1
Fallon Bolton,(231) 992-3652,curabitur.dictum@outlook.edu,San José,Mexico,5,5323,"566-4778 Vitae, St.",9
Fallon Lewis,1-336-736-4235,aliquam.nisl@icloud.org,Bình Thuận,China,9,2859-1895,Ap #547-6045 Morbi Avenue,1
Fatima Dominguez,(466) 456-6888,sociis.natoque.penatibus@yahoo.couk,Illes Balears,South Africa,7,1973 ML,Ap #647-8858 Nunc Street,1
Fatima Tran,(515) 846-1065,luctus.lobortis@hotmail.net,South Gyeongsang,Colombia,9,8624,764-4676 Enim Avenue,7
Felicia Carson,1-230-876-5961,sed.dictum@aol.net,Vienna,Turkey,7,6824,740-1691 Egestas Rd.,9
Felix Chapman,(758) 483-6676,lacus.varius@protonmail.edu,Central Kalimantan,Canada,0,488227,626 Dolor St.,13
Flavia Castaneda,(313) 521-8517,tristique@icloud.edu,Leinster,South Africa,0,80526,8911 Ante St.,3
Francesca Burgess,(786) 738-1570,et.magnis@hotmail.org,Chernivtsi oblast,Netherlands,7,80154,"P.O. Box 195, 9309 Purus. Road",15
Francis Case,1-425-776-9733,egestas.duis@icloud.edu,Vlaams-Brabant,Poland,8,54143,3528 Dapibus Rd.,15
Freya Carver,1-950-402-9283,lorem.semper@google.com,Goiás,Belgium,5,67-927,609-1536 Ante Road,9
Fritz Peck,(132) 247-1188,auctor.non.feugiat@protonmail.couk,Cà Mau,Ukraine,6,12768,"951-881 Non, Av.",19
Gabriel Mercado,(435) 832-6218,non@yahoo.edu,Cusco,Nigeria,3,D27 2ZE,"525-842 Dui, Road",17
Gail Harding,1-340-551-7566,rutrum@yahoo.edu,Berlin,Colombia,1,788785,657-6362 Nonummy St.,11
Galvin Bowman,(306) 252-1325,aliquam.nisl@icloud.ca,Pays de la Loire,Chile,6,52244,762 Eu Rd.,11
Gannon Mercado,1-677-988-5247,quisque.libero@google.net,Waals-Brabant,Ukraine,3,92-62,305-3385 Adipiscing Ave,19
Gannon Rivas,1-624-494-5101,sed@outlook.net,North Jeolla,France,9,66772,Ap #196-9728 Donec Rd.,7
Garth Calderon,(609) 383-0116,pellentesque.massa.lobortis@outlook.org,Loreto,India,6,71-72,4907 Aliquam Road,3
George Harrington,1-241-104-5552,a.tortor@yahoo.com,Free State,Italy,3,73-81,Ap #729-9934 Vitae Rd.,11
Georgia Summers,1-913-432-1885,commodo.hendrerit@outlook.ca,Borno,Pakistan,6,UW6 8MQ,Ap #856-5432 Libero Rd.,9
Georgia Woodard,1-362-472-0647,ultrices.iaculis@icloud.couk,łódzkie,Chile,5,479167,472-4694 Justo St.,19
Germaine Morrison,(307) 420-5772,ut@icloud.net,Caraga,Norway,4,9598 MS,6796 Fusce Road,7
Germane Palmer,(453) 632-8759,integer@icloud.couk,Aisén,United Kingdom,9,62794-625,154-3822 Enim Rd.,3
Germane Price,(863) 762-7857,pede.ultrices@icloud.net,Free State,Mexico,3,467695,"510-761 Scelerisque, St.",17
Giacomo Kemp,1-468-723-5226,posuere.at@aol.org,Tula Oblast,Australia,6,53568,"908-4473 Ullamcorper, Ave",5
Giacomo Watts,(222) 445-8216,interdum.ligula.eu@yahoo.org,Rivers,Vietnam,3,3233,"P.O. Box 429, 2275 Congue, Road",5
Gil Jackson,(955) 562-8642,hendrerit@outlook.ca,Hertfordshire,South Korea,10,1473,208-1967 Mus. Rd.,9
Gisela Cross,1-683-684-5848,vivamus.nisi@icloud.ca,North West,Belgium,3,648535,Ap #670-6551 Volutpat. St.,9
Gloria Walton,(604) 560-8763,dis.parturient@google.com,Haryana,South Korea,4,463383,913-6294 Phasellus St.,3
Grace Juarez,1-344-585-3675,vel.est@yahoo.net,Ternopil oblast,France,5,m7S 6S4,2087 Auctor Rd.,13
Graham Oliver,1-913-585-8770,tortor.integer@aol.org,Paraná,United Kingdom,5,255697,"Ap #110-647 Risus, Rd.",3
Gray Pratt,(224) 625-2330,turpis.egestas.aliquam@icloud.couk,West Region,Spain,5,3202,5416 Consectetuer St.,11
Griffin Swanson,(284) 459-5644,erat.vel@yahoo.org,Vlaams-Brabant,Turkey,2,78517,"P.O. Box 963, 8012 Metus Ave",11
Griffith Conrad,1-299-318-5057,sed.eu@google.net,Free State,United Kingdom,9,73640,929-6986 Nunc Rd.,15
Halee House,1-675-798-8224,fames@google.ca,Melilla,United Kingdom,9,255111,8395 Nonummy. Rd.,5
Hamilton Spears,1-258-842-8261,elementum.purus@aol.edu,Oryol Oblast,Colombia,9,47-94,938-7707 Tortor. Ave,17
Hanae Bond,1-864-663-8363,dapibus.rutrum@yahoo.edu,Tabasco,Singapore,5,92983,Ap #122-4275 Orci. St.,17
Hanna Cline,1-576-632-8266,a.felis@aol.ca,Pará,Ireland,2,7164 IU,Ap #574-9682 Fusce Ave,13
Hannah Fitzgerald,1-245-453-4218,vivamus.nibh.dolor@aol.net,Rogaland,South Africa,9,25179,124-7148 Posuere Street,19
Hannah Richard,1-893-341-5671,sociis.natoque@aol.couk,Kahramanmaraş,South Africa,3,6276,Ap #612-881 Tempus Av.,7
Harding Ford,1-566-234-6758,in.nec@yahoo.net,Coquimbo,Belgium,5,9011,6204 Ligula Avenue,19
Harlan Steele,1-374-426-6815,lectus.justo.eu@yahoo.org,East Region,Italy,6,46881-64283,943-1406 Et Rd.,19
Harper Newton,(648) 431-4206,sed.eget@outlook.ca,Northern Cape,Spain,5,633493,9988 Mi Rd.,15
Harper Weaver,1-429-460-3328,ridiculus.mus.proin@icloud.edu,Cartago,France,8,9151,478-5034 A Rd.,19
Hasad Salinas,1-764-344-2113,diam.eu@hotmail.couk,North Gyeongsang,Brazil,7,7496 TH,"Ap #254-3278 Lorem, Road",13
Hedley Webb,1-942-946-1515,massa.mauris@icloud.com,Australian Capital Territory,South Korea,7,2578,Ap #806-6251 Quis Av.,7
Hedwig Marshall,(264) 626-1731,dis.parturient.montes@aol.org,South Island,Sweden,3,706711,"P.O. Box 383, 7459 Turpis. Street",7
Herman Hunter,1-564-865-2129,ridiculus.mus@google.edu,Punjab,Costa Rica,5,22553,Ap #718-5703 Ipsum. Av.,15
Herrod Fuller,(435) 490-2414,integer@aol.couk,Tuyên Quang,Pakistan,4,61144,Ap #489-6662 Maecenas Av.,1
Hilda Schwartz,(728) 222-8283,mi.duis@protonmail.net,Ogun,Colombia,4,52677-321,315-4234 Facilisis. Av.,11
Hop Mccall,(767) 828-9565,enim.etiam@hotmail.ca,Rivers,Netherlands,5,710636,Ap #900-3537 Dictum Rd.,1
Hope Taylor,1-278-999-7592,nunc.ac@aol.edu,Leinster,Spain,10,156235,"P.O. Box 465, 2034 Odio Rd.",13
Howard Lopez,(632) 986-3805,lobortis.class@outlook.com,Luik,Mexico,3,418375,976-9822 Nunc Av.,7
Hunter Lawrence,(371) 351-6476,ornare.sagittis@icloud.org,Kemerovo Oblast,Turkey,7,140021,8536 Malesuada Avenue,3
Hyatt Haley,1-394-755-1806,id@hotmail.ca,Benue,South Africa,7,54439,Ap #229-4898 Phasellus Av.,19
Ian Faulkner,(271) 537-6135,eu@outlook.edu,Hessen,Norway,3,20409,"P.O. Box 655, 8074 Lectus Rd.",15
Ian Sellers,(626) 474-3276,lacus.ut.nec@aol.org,Nunavut,Austria,3,65568,743-2240 Egestas Road,15
Ila Middleton,(422) 705-2463,auctor@yahoo.ca,Zaporizhzhia oblast,Netherlands,0,659241,113 Vitae Avenue,3
Imani Mayo,1-664-676-3011,id.enim@hotmail.com,Bahia,Ireland,9,7732,455-9660 Auctor St.,11
Ina Collins,(525) 841-9022,ornare@yahoo.ca,Xīběi,Colombia,7,4362,786-5940 Quisque Ave,5
Inez Doyle,(933) 824-1131,mollis.lectus@icloud.net,Ceará,Ukraine,5,1731,"P.O. Box 198, 8751 Donec Ave",17
Inga Patterson,(674) 827-3296,ac.tellus@outlook.edu,Poitou-Charentes,Vietnam,0,13044,"Ap #928-4877 Ac, Street",11
Ingrid Daniels,1-917-811-5119,in@outlook.edu,Sumy oblast,Poland,6,21-32,"199-2452 Et, Road",15
Isaac Weeks,1-828-660-1643,semper.tellus@icloud.org,New Brunswick,United States,4,64782,861-2367 Sagittis. Ave,19
Isabelle Bryan,1-693-605-8947,sed.tortor@protonmail.couk,Lima,Brazil,2,1784,732-7227 Cras St.,19
Isaiah Middleton,(276) 256-2063,molestie.dapibus.ligula@hotmail.edu,Yucatán,China,8,38452,4438 Lacus. Av.,13
Ivan Lott,(777) 853-8299,vel@icloud.com,Oslo,India,3,33144,Ap #928-1622 Morbi St.,9
Ivor Jimenez,1-807-116-3475,netus@hotmail.com,Central Region,Norway,9,5631,5581 Magna Avenue,5
Ivory Douglas,1-293-381-1655,quisque.tincidunt@icloud.com,Maule,United States,2,345283,199-4424 Suspendisse St.,5
Ivory Dunlap,1-399-564-3611,nunc.mauris@outlook.couk,Cherkasy oblast,Germany,5,75934,Ap #371-5118 Consectetuer Av.,7
Ivy Holloway,1-949-258-3356,elementum@outlook.org,Gauteng,Brazil,5,G5 8AL,Ap #704-3316 Sed Street,11
Jada Townsend,(691) 488-6483,mollis.duis@outlook.com,Alberta,Spain,2,27008,139-1214 Sed St.,11
Jade Cochran,(705) 566-4129,dolor.dolor@yahoo.edu,Ceuta,Ireland,4,385699,Ap #537-3071 Interdum. St.,17
Jade Vang,(135) 270-2224,nulla.eget@hotmail.org,Waals-Brabant,Colombia,5,2358,440-8159 Fermentum Ave,7
Jaden Robles,(490) 355-5208,nullam.lobortis@protonmail.couk,Troms og Finnmark,Pakistan,9,8874,236-8335 Dolor Avenue,3
Jamal Ellison,1-461-227-5453,consequat.lectus.sit@aol.ca,Lâm Đồng,Netherlands,3,782077,114-2226 Massa. Street,7
Jane Pacheco,(274) 585-9165,mus.donec@icloud.ca,Monmouthshire,Spain,7,964743,Ap #920-5513 Commodo Rd.,7
Jaquelyn Church,1-458-977-9345,viverra@aol.net,La Libertad,Sweden,0,35914-35356,463-6279 Etiam Rd.,9
Jarrod James,(618) 227-8535,gravida.sit@icloud.ca,Upper Austria,Turkey,5,86581,5914 Morbi Road,9
Jarrod Montoya,(258) 330-2927,etiam@protonmail.com,Leinster,Pakistan,2,57647,5793 A Rd.,9
Jasmine Moon,(831) 306-9869,eu@outlook.couk,Vienna,South Africa,8,3258,4626 Sagittis Avenue,1
Jason Jenkins,(837) 666-6356,eu@outlook.net,Leinster,Australia,2,7514,"Ap #285-6600 Et, Avenue",15
Jerry Gay,1-163-511-2769,duis@aol.ca,Heredia,Germany,9,24558,1640 Faucibus Road,9
Jerry Hess,(626) 674-8248,cursus@protonmail.net,San José,Peru,5,586427,697-2106 Lorem Rd.,7
Jerry Shields,1-703-716-6617,aliquet.nec.imperdiet@aol.ca,Điện Biên,Russian Federation,2,13793,"P.O. Box 394, 6998 Mollis. Road",1
Jesse Harrington,1-625-808-9134,proin@yahoo.org,San José,United Kingdom,5,6039,Ap #768-773 Interdum. St.,7
Jillian Spencer,(272) 696-8658,sagittis.felis.donec@yahoo.couk,Eastern Visayas,Ukraine,1,237524,"7509 Ac, St.",11
Jin Bartlett,1-273-336-1871,turpis.egestas@outlook.org,Diyarbakır,Netherlands,10,3613,859-4954 Neque. Avenue,19
Jin Beard,1-475-660-3277,nunc@google.edu,Tamil Nadu,Russian Federation,6,43982,889-1894 Nisl. Rd.,7
Jin Hubbard,1-812-424-2628,odio.auctor.vitae@hotmail.ca,Kharkiv oblast,Belgium,0,4133,345-9031 Molestie. Av.,3
Jin Sykes,1-503-386-9590,elit@aol.org,Hatay,Russian Federation,4,724711,"P.O. Box 456, 6199 Ullamcorper, St.",7
Joan Hickman,1-651-952-1115,orci.donec.nibh@icloud.couk,Cusco,Philippines,2,478633,Ap #339-644 Velit Road,9
Jorden Harrell,1-665-879-0456,libero@google.com,Antalya,Netherlands,7,05581,"671-7604 Vulputate, Ave",1
Josephine Cote,(375) 752-1075,morbi.neque.tellus@icloud.couk,Khyber Pakhtoonkhwa,Peru,7,641041,Ap #751-7336 Lacus. St.,5
Joshua Forbes,1-881-817-3215,sit.amet.dapibus@outlook.couk,Drenthe,Brazil,1,434482,269-6509 Gravida. Rd.,13
Juliet Cunningham,(584) 298-4025,sit.amet@protonmail.com,Iowa,Mexico,10,71782,Ap #534-7371 Convallis Street,13
Justine Livingston,(233) 868-4948,et@icloud.com,Queensland,Singapore,9,42-874,9267 Id Road,13
Kadeem Wilkins,(581) 864-3443,nibh.vulputate.mauris@google.net,West Region,Colombia,6,6784,5281 Tortor St.,17
Kai Evans,1-622-578-5448,phasellus.dapibus@icloud.net,Salzburg,Poland,6,08303,Ap #487-2534 Lacus Street,7
Kai Parrish,1-676-643-4136,ut@hotmail.org,Delta,Indonesia,7,75787-686,"664-3849 Non, Street",11
Kaitlin Barry,(571) 245-0538,eu.nibh@outlook.ca,Kurgan Oblast,Indonesia,0,11107,9201 Vivamus St.,5
Kaitlin Noble,1-968-524-2127,faucibus.orci.luctus@hotmail.edu,Podlaskie,Italy,8,71059,Ap #589-6596 Ultricies Av.,1
Kaitlin Rowland,(442) 674-8845,arcu.vestibulum@yahoo.com,Ceuta,United States,10,42942,4808 Amet Rd.,9
Kalia Curtis,(536) 528-2345,tincidunt.vehicula@hotmail.org,Lorraine,Canada,9,3689,Ap #163-6785 Mauris. Ave,1
Kalia Huff,(678) 794-8811,nec@google.edu,British Columbia,Indonesia,8,22953,570-182 Elit Road,19
Kameko Bray,1-441-682-8739,odio@google.edu,South Island,Canada,8,69761-27864,"Ap #578-6613 Aliquam, St.",17
Kameko Conley,1-901-661-8615,vestibulum.neque.sed@hotmail.com,Minas Gerais,Canada,7,3367,615-8096 Natoque St.,1
Kane Rice,(275) 204-3405,quis.pede.praesent@protonmail.com,Ceará,France,3,2966,2394 Erat Avenue,5
Karleigh Myers,1-305-312-4883,molestie.orci@aol.edu,Lambayeque,South Korea,9,EP0 4BH,199-425 Auctor St.,1
Karyn Baldwin,1-682-268-3380,magna.et.ipsum@yahoo.couk,Connacht,Belgium,9,452027,412-6058 Duis Road,5
Kaseem Lynn,(652) 867-8680,ullamcorper.velit@yahoo.org,South Australia,Turkey,2,5431-6240,Ap #329-9093 Posuere Ave,13
Kasimir Monroe,(941) 131-7224,et.lacinia.vitae@hotmail.org,Warmińsko-mazurskie,Austria,7,6540,Ap #201-1174 Dui Avenue,3
Kasper Tanner,1-540-624-1036,laoreet.libero@yahoo.ca,Michigan,Russian Federation,1,42N 0J1,Ap #871-8259 Cursus Avenue,13
Kathleen Gibbs,1-455-363-1368,molestie.tortor.nibh@outlook.edu,Novosibirsk Oblast,Poland,2,JV35 2MN,187-4781 Sed St.,7
Kathleen Petty,(872) 754-2564,massa@icloud.org,Wielkopolskie,South Africa,9,8339,5979 Magna. St.,11
Keane Cruz,(140) 755-1717,penatibus@aol.net,South Australia,Belgium,10,85-77,"P.O. Box 101, 3997 Etiam Road",13
Keegan Blevins,(809) 318-9636,convallis.in.cursus@outlook.edu,Heredia,Nigeria,3,92696,Ap #571-7941 Diam Road,11
Keely Mathis,1-441-954-5676,amet.luctus@google.org,Khmelnytskyi oblast,United Kingdom,10,8105,271-2165 Fermentum Ave,3
Kelsie Lindsey,1-345-267-8439,tristique.neque@aol.org,Oost-Vlaanderen,Brazil,4,7717,Ap #945-2138 Nec Ave,7
Kenyon Solis,1-636-517-2976,luctus.et@outlook.com,Hưng Yên,Costa Rica,9,489485,Ap #763-6525 Lobortis St.,3
Kevin Horn,(478) 322-3568,elit.sed.consequat@aol.couk,Huádōng,Nigeria,0,665710,229-2299 Gravida. Ave,5
Kieran Avery,1-844-747-3774,non.lorem@icloud.org,Campania,Chile,1,33-379,"P.O. Box 415, 7344 Bibendum. Rd.",19
Kimberley Marshall,(858) 733-1565,nec@icloud.couk,Sonora,United States,6,117722,"P.O. Box 626, 3563 Quisque Rd.",13
Kimberley Turner,1-935-542-6533,lacus.pede@yahoo.net,Puntarenas,Philippines,7,365341,"P.O. Box 500, 2264 Elementum Rd.",15
Kirby Sweet,1-202-626-2110,fames.ac.turpis@yahoo.couk,Upper Austria,United States,0,6488,866-5917 Ut Avenue,11
Kirsten Mclean,1-163-769-6171,vestibulum@yahoo.org,Jigawa,India,1,35693,"Ap #974-543 Ut, Rd.",3
Kirsten Moss,(393) 637-2752,enim.mi.tempor@yahoo.org,Kurgan Oblast,United Kingdom,8,L47 8CF,Ap #638-4615 Gravida Rd.,3
Knox Mercado,1-726-171-8132,eros@yahoo.couk,Rivne oblast,Indonesia,3,N2O 5EJ,491-7997 Diam Rd.,9
Kuame Espinoza,1-990-781-5741,praesent.eu@aol.ca,East Nusa Tenggara,Indonesia,2,30918,4348 Aenean St.,3
Kyla Farrell,(543) 488-7988,libero.integer.in@protonmail.edu,South Island,Sweden,3,2951-5635,Ap #803-6299 Eros Rd.,17
Kylan Potter,1-345-221-4942,donec.at@protonmail.net,Ancash,New Zealand,7,84-56,"P.O. Box 365, 5430 Urna. Road",19
Kyle Booth,1-517-786-9287,elit@aol.net,Rogaland,Mexico,6,BO64 0OR,3582 Lorem St.,11
Lamar Sweet,1-536-275-0753,lorem@outlook.ca,Piemonte,Austria,7,6151,"P.O. Box 934, 8938 Nulla Av.",11
Lance Case,(413) 336-2418,integer.mollis@outlook.net,Suffolk,Philippines,3,01112,Ap #420-9166 Lorem St.,11
Lani Carter,(281) 337-3488,libero.proin.mi@aol.couk,Hà Tĩnh,Austria,7,3286,Ap #626-1623 Venenatis Road,11
Lars Donovan,(492) 761-4669,ut.sem@protonmail.com,Comunitat Valenciana,India,5,0788,970-9220 Euismod St.,3
Lavinia Macias,1-454-868-8202,erat.nonummy.ultricies@icloud.net,Uttar Pradesh,Pakistan,4,56544,957-2899 Ultricies Rd.,17
Leandra Tyson,(415) 333-7123,ut.nec@icloud.edu,Navarra,India,6,5769 TI,Ap #605-2780 Tempor St.,15
Lee Browning,(782) 246-2781,enim.commodo.hendrerit@outlook.ca,Zhōngnán,Spain,5,18323,Ap #761-1137 Urna Rd.,5
Lee Rosario,1-314-754-7478,aliquam.rutrum.lorem@icloud.org,La Rioja,Turkey,8,23588,392-6144 Phasellus St.,15
Lee Webb,(173) 681-7088,diam.eu.dolor@aol.net,Salzburg,Sweden,5,I22 6KL,"Ap #535-5586 Eu, Rd.",5
Len Harrell,(283) 587-5387,hendrerit@outlook.com,Toscana,Singapore,9,487352,Ap #469-2946 Velit Avenue,5
Len Leach,(534) 442-4895,semper@hotmail.ca,Guerrero,United Kingdom,8,637472,4719 Quisque Road,17
Len Munoz,1-870-219-8521,eros.turpis@icloud.com,Free State,Ukraine,2,2872,Ap #528-4036 Eget Avenue,17
Len Summers,(625) 480-4440,ut.eros@protonmail.net,Pondicherry,Pakistan,8,8464-6916,141-4186 Libero. Ave,5
Lenore Gordon,(143) 241-4386,non.enim@aol.edu,South Island,Belgium,10,3045,8465 Purus. St.,3
Leonard Allison,1-417-327-8977,velit@hotmail.org,Gangwon,New Zealand,3,21211,Ap #660-6020 Felis Av.,17
Leroy Cross,(821) 714-2268,mauris@google.ca,Vaupés,Austria,1,45266,8201 Metus St.,5
Lesley Gaines,1-774-364-2943,tincidunt.aliquam@yahoo.ca,Jönköpings län,Brazil,9,365520,Ap #425-3124 Orci Av.,3
Levi Golden,1-367-541-0837,aenean.sed@hotmail.edu,Antwerpen,India,4,1994-8344,Ap #174-6489 Felis Av.,9
Lewis Cook,1-206-581-7752,id.mollis@aol.couk,Opolskie,Singapore,8,64687,Ap #387-8841 Aliquet. Av.,17
Libby Murphy,1-354-338-1339,pretium@outlook.net,Dōngběi,Ireland,2,736363,274-8549 Laoreet St.,15
Lila Barlow,1-285-846-1961,dictum@yahoo.couk,Poitou-Charentes,Italy,6,7581,Ap #623-2093 Ut Rd.,5
Lila Klein,(540) 562-1698,tristique.senectus@yahoo.org,North Region,China,1,14869,"P.O. Box 616, 5108 Quis Road",3
Lillian Bass,1-434-251-2978,neque@google.org,Vienna,Netherlands,6,22042,"P.O. Box 126, 428 Scelerisque Avenue",17
Lionel Lott,(722) 659-6463,ac.facilisis@hotmail.org,Gyeonggi,Pakistan,1,18518,Ap #204-7711 Gravida Street,11
Logan Pearson,1-547-867-1472,at.nisi@icloud.com,Huádōng,Belgium,2,489386,2073 Litora St.,19
Lucius Vazquez,1-934-923-2544,suspendisse.sed@outlook.org,Dōngběi,Peru,5,24687,820-4840 Risus Rd.,3
Lucy Rios,(717) 471-2881,eu.tempor.erat@google.edu,Arequipa,Canada,8,35526,Ap #467-4046 Pharetra. Ave,11
Macon Reese,1-174-737-0678,lorem.ut.aliquam@yahoo.edu,Valle d'Aosta,Pakistan,10,58543-175,"P.O. Box 164, 9612 Eu Ave",3
Madaline Tucker,1-281-863-9225,quisque.ac.libero@protonmail.edu,Tamaulipas,Netherlands,7,7659,895-6506 Mi Rd.,11
Magee Daugherty,(116) 928-6768,in.consectetuer.ipsum@hotmail.couk,Alsace,Vietnam,5,62342,Ap #870-5491 Turpis St.,13
Magee Fuentes,(878) 652-6146,nullam.feugiat.placerat@icloud.com,West Region,China,8,79982,Ap #435-1791 Velit. St.,11
Maggy Gonzalez,(718) 578-3841,consequat.lectus@google.com,Clackmannanshire,Peru,1,405978,3913 Pellentesque. Av.,19
Maisie Pacheco,1-326-453-7711,tellus.eu@hotmail.edu,San José,Chile,8,6983-5444,7401 Augue St.,19
Maisie Rivera,(647) 454-6703,amet.risus.donec@protonmail.couk,North Island,Germany,1,46-53,"Ap #279-9302 Eu, Rd.",15
Marcia Rush,(551) 594-6373,etiam.ligula@protonmail.com,Assam,Chile,2,40901,"P.O. Box 838, 2494 In, Road",13
Mari Fitzpatrick,1-170-336-4234,pellentesque.a@protonmail.net,Western Visayas,Russian Federation,3,73447,507 Ipsum. Street,9
Mariko Greer,(974) 783-1040,consequat.enim@aol.couk,Riau Islands,Australia,2,41304,3943 Nec Av.,9
Maris Carney,1-689-381-4522,lorem.luctus@hotmail.net,Northern Cape,Germany,10,76275,2547 Tortor. Avenue,13
Mark Guy,1-558-233-6724,ac@outlook.com,Vienna,Colombia,8,348258,Ap #985-7528 Sit Ave,15
Marny Klein,(742) 365-1213,sed.molestie@hotmail.org,Amur Oblast,India,1,75717,951 Ligula. Ave,15
Marsden Casey,1-253-575-7559,non.nisi@yahoo.org,Sonora,Spain,6,713679,"Ap #373-2138 Eget, Rd.",5
Marshall Hays,(707) 558-2503,pretium@yahoo.edu,Merionethshire,Chile,8,86792,"Ap #698-979 Sed, Rd.",9
Marshall Little,1-372-424-4848,arcu.iaculis@outlook.couk,Los Lagos,Sweden,2,88910-531,Ap #541-9214 Elit Rd.,15
Mason Sandoval,1-337-824-3313,dui.nec@protonmail.net,Canarias,Mexico,5,62333,6421 Aliquam St.,19
Matthew Hurley,1-627-666-7601,magna.sed.eu@yahoo.couk,Kurgan Oblast,Netherlands,2,85378-74464,Ap #893-9383 Accumsan Road,17
McKenzie Albert,1-623-395-1884,sagittis.semper@hotmail.org,Zuid Holland,Singapore,10,77608-29599,Ap #634-1942 Eros. Street,1
McKenzie Mcleod,(859) 851-2075,ante@google.net,Sląskie,Philippines,2,22347,557-913 Hendrerit Av.,11
Mechelle Mullins,(704) 375-1257,pellentesque.eget.dictum@protonmail.org,Astrakhan Oblast,Pakistan,6,6668,"P.O. Box 920, 694 Sodales Rd.",7
Medge Ward,(622) 344-3538,curabitur.massa@yahoo.org,Puno,Ukraine,9,61482,"3604 Eu, Avenue",7
Melanie Vaughn,1-365-549-9482,augue.eu@protonmail.ca,Stockholms län,Canada,9,87855,1351 Morbi St.,19
Melvin Velez,1-320-447-7448,amet@hotmail.net,Salzburg,New Zealand,6,23713,965-9285 Molestie St.,19
Merrill Booth,(571) 368-0212,enim.mauris@protonmail.ca,Himachal Pradesh,Indonesia,1,62852-052,846-2133 Dictum. Road,11
Mira Allen,(364) 624-1577,justo.praesent@google.net,Östergötlands län,Ukraine,2,174618,Ap #530-650 Mauris Ave,3
Murphy Ryan,1-656-403-4682,mauris.molestie@outlook.ca,Azad Kashmir,Australia,5,50944,Ap #714-4868 Mauris Rd.,15
Myles Foreman,1-753-665-1675,ante.dictum@protonmail.org,Atacama,Spain,8,3357,Ap #330-6938 Primis Ave,1
Myra Olson,1-981-541-6657,mollis.vitae@yahoo.edu,Illes Balears,Nigeria,0,5834,9155 Bibendum St.,9
Nadine Berry,1-444-557-4831,urna.suscipit@protonmail.ca,North Island,Brazil,8,5286,"P.O. Box 352, 2510 Nostra, St.",3
Naida Livingston,(231) 558-8128,in.faucibus@aol.net,Leinster,United States,5,4783 SS,537-7035 Enim. Street,1
Nash Wagner,(208) 132-0074,sapien.cursus@aol.edu,New South Wales,Spain,0,88071,"P.O. Box 801, 7188 Auctor St.",19
Nathan Chavez,1-673-844-5801,nonummy.ultricies.ornare@yahoo.org,Maranhão,Singapore,5,15081,"5992 Iaculis, Ave",17
Nathaniel Nolan,1-834-351-7561,ipsum.dolor.sit@aol.couk,Upper Austria,Ireland,0,234316,Ap #604-1329 Risus. Road,19
Nayda Ingram,(271) 425-3216,suspendisse.aliquet@google.couk,Nizhny Novgorod Oblast,Colombia,8,70188-82257,177-4752 Dictum St.,19
Nehru Ballard,(614) 528-9838,consectetuer.mauris@google.edu,Manisa,Pakistan,2,2873,"849-1718 Ornare, St.",17
Nelle Gaines,1-982-487-7885,nec.cursus@hotmail.net,Campania,Canada,0,5871-4543,133-8184 Tristique Av.,7
Nigel Fletcher,(760) 293-2754,duis.mi.enim@aol.org,Pays de la Loire,Indonesia,2,N1M 2B7,331-8593 Dapibus St.,17
Noble Newman,(664) 374-1393,leo.morbi@aol.com,Namen,Belgium,4,966326,683-4349 At St.,11
Noelle Black,1-492-775-1382,amet.massa@aol.ca,Pondicherry,Colombia,7,510889,Ap #880-8409 Accumsan Road,5
Noelle Briggs,1-619-844-8228,ac.tellus@protonmail.ca,Tyrol,New Zealand,3,371581,Ap #707-7394 Libero Rd.,19
Nola Munoz,1-951-467-7037,tellus.faucibus@yahoo.com,Cauca,Mexico,5,30814,Ap #708-2168 Quam Ave,3
Nomlanga Mercer,(375) 633-1711,suspendisse.tristique@yahoo.edu,Zhytomyr oblast,Ukraine,6,5417,886-9315 Nec Av.,19
Nora Ball,(133) 828-4371,feugiat@protonmail.org,Los Lagos,Ireland,6,6423,454-4812 Mollis. Street,15
Nora Page,(576) 932-1153,libero.integer@yahoo.com,Kogi,South Africa,6,445126,370-3105 Nullam Street,19
Odysseus Conley,(585) 940-7040,sed.sem@aol.edu,Samara Oblast,South Africa,5,0449,"P.O. Box 310, 9521 Lectus. Av.",15
Olivia Callahan,1-913-184-8134,euismod.mauris.eu@outlook.com,Dnipropetrovsk oblast,Singapore,5,51588,847-3351 Risus. Avenue,9
Olivia Mccarty,(367) 144-1550,consequat.nec@protonmail.org,Nevada,United States,6,74271,Ap #159-4305 Sit St.,5
Orla Spence,1-615-745-4966,molestie@aol.ca,Poitou-Charentes,India,4,455289,"Ap #427-9009 Lorem, Rd.",5
Orlando Moses,(244) 443-7348,aliquam.rutrum.lorem@google.org,Maluku,Norway,1,74474,"P.O. Box 472, 8117 Auctor Rd.",19
Orli Pollard,(458) 324-6472,rhoncus.nullam.velit@aol.com,Midi-Pyrénées,France,8,6848,321-9441 Consequat St.,11
Owen Golden,1-667-559-1118,mattis@outlook.org,Gloucestershire,Philippines,5,170383,778-3370 Dolor. Ave,3
Pascale Bishop,(584) 582-7339,feugiat.placerat@protonmail.org,Overijssel,Belgium,9,29017,Ap #721-3049 Nisi Road,19
Patricia Alvarado,1-166-725-2623,pharetra.quisque@protonmail.couk,Henegouwen,Russian Federation,5,9077,"P.O. Box 514, 7548 Phasellus Ave",7
Patrick Mann,1-660-581-5655,lacus.etiam@icloud.ca,Languedoc-Roussillon,Austria,1,6728,8539 Magna. St.,1
Pearl Ayers,(712) 467-2556,nisl.maecenas@outlook.ca,Diyarbakır,Canada,9,21703,136-1540 Lorem Rd.,11
Petra Castaneda,(783) 277-7588,aliquet@aol.org,North Kalimantan,South Africa,2,231722,"P.O. Box 448, 9796 Massa. Road",9
Phelan Park,1-733-438-8782,velit.quisque@google.com,Alaska,Russian Federation,2,7611,565-6205 Gravida Ave,7
Philip Bray,(244) 515-5403,nunc.lectus.pede@hotmail.org,Denbighshire,Mexico,9,51465,183 Torquent St.,9
Phillip Davidson,1-800-691-8428,orci.consectetuer@icloud.edu,Khyber Pakhtoonkhwa,South Africa,0,22662,315-8395 Arcu St.,15
Plato Mckenzie,(344) 852-3939,ac.feugiat.non@hotmail.net,Jigawa,Ukraine,2,7270,Ap #919-2238 Aliquam Avenue,3
Plato Phelps,1-753-981-0676,consectetuer@protonmail.couk,Tripura,Brazil,6,45772,1227 Eros St.,5
Portia Rich,1-451-537-3013,gravida.non.sollicitudin@hotmail.org,Ulster,Russian Federation,7,15754,Ap #845-1108 Molestie Rd.,19
Preston Maldonado,(380) 849-7581,consequat.dolor@outlook.ca,Tyrol,Germany,7,N12 3IL,130-1334 Urna St.,11
Priscilla Mayer,1-192-723-4676,dictum.cursus.nunc@outlook.ca,Vestland,Poland,5,43-513,Ap #775-7308 Sem Street,3
Quinn Sandoval,(260) 224-6878,nisl.quisque.fringilla@icloud.ca,Balıkesir,Vietnam,8,5274,Ap #120-1671 Ac St.,15
Quintessa Mcclain,(472) 222-8883,per.inceptos@protonmail.edu,Limón,Philippines,2,3820,Ap #582-7231 Sapien Avenue,1
Quon Navarro,(741) 978-6305,risus.in@outlook.com,New Brunswick,Colombia,7,34-414,"P.O. Box 679, 5905 Diam Street",7
Quyn Vargas,(558) 565-4873,augue@aol.couk,Jönköpings län,Chile,4,15737,971-9539 Aliquam Street,7
Quynn Carroll,(277) 327-3874,dui.in@outlook.org,Xīběi,Singapore,7,82739,326-1842 In Ave,3
Quynn Guzman,(946) 268-3788,tempus@hotmail.edu,Kentucky,South Korea,7,9538,658-3868 Tellus. Av.,13
Quynn Winters,1-135-793-6071,eget.volutpat@protonmail.org,Arequipa,Pakistan,8,32207,"Ap #633-5864 Orci, St.",1
Rafael Horn,1-752-451-3835,nam.nulla@yahoo.ca,North Island,United Kingdom,10,T48 0DS,897-4642 Arcu. St.,5
Rafael Maddox,1-348-918-3674,sed.orci@protonmail.net,Oxfordshire,Nigeria,10,P3 2FT,Ap #643-2014 Lorem Avenue,17
Raja Key,1-439-783-7772,purus@outlook.couk,Gävleborgs län,Chile,1,2056,Ap #382-1750 Hendrerit St.,3
Rajah Fuller,1-315-687-3788,lacus@icloud.org,Waals-Brabant,Singapore,0,569420,Ap #590-9579 Vulputate Rd.,15
Ralph Delgado,(763) 312-7269,diam.duis.mi@protonmail.com,Xīnán,Mexico,9,1213,"P.O. Box 417, 2701 Ac Street",13
Raphael Dunn,(651) 482-9046,cum.sociis.natoque@hotmail.ca,Euskadi,New Zealand,3,1634,Ap #428-6863 Tortor. Rd.,17
Raymond Gilmore,(438) 674-6214,eros.non@yahoo.edu,Tabasco,Belgium,10,483326,"P.O. Box 514, 5319 Nec, Avenue",9
Reece Duffy,(269) 836-3846,commodo.ipsum@google.net,Trentino-Alto Adige,Brazil,10,2703,396-3441 Sed Road,17
Reece Ferguson,(572) 483-2706,diam.nunc@protonmail.ca,Queensland,Singapore,9,6389,617-3121 Praesent Ave,7
Reese Hoffman,(570) 466-7131,justo.nec@icloud.couk,Katsina,Costa Rica,8,697602,Ap #589-3106 A Street,7
Reuben Ellis,1-588-645-8814,risus.quis@icloud.ca,Xīběi,Indonesia,4,508785,Ap #942-7403 Arcu St.,13
Reuben Mcneil,1-492-461-6748,hendrerit@protonmail.couk,Manitoba,France,6,78817,Ap #892-1879 Nec St.,15
Reuben Vazquez,(834) 839-5161,nibh.dolor@yahoo.edu,Aydın,Norway,10,4681,Ap #662-3543 Maecenas St.,19
Rhea Stevenson,1-639-715-1667,torquent.per.conubia@icloud.com,Dalarnas län,Poland,6,7736,873-6955 Magna Road,1
Ria Leon,1-745-357-7809,sem.consequat.nec@yahoo.net,Loreto,Austria,8,461298,"P.O. Box 114, 5816 Pellentesque Rd.",19
Rigel Barr,(881) 611-7263,eget.dictum.placerat@hotmail.edu,Pondicherry,Ukraine,6,357722,"683-6192 Montes, Ave",3
Riley Dillard,1-359-788-3614,ridiculus.mus.aenean@protonmail.ca,North Island,Poland,6,CB11 4RY,898-8498 Quam Rd.,11
Rina Dillard,(278) 557-1682,a.odio.semper@yahoo.ca,Nordrhein-Westphalen,Poland,6,49-917,"P.O. Box 150, 4829 Amet Rd.",1
Rinah Fuentes,1-408-756-3415,cras.dictum.ultricies@icloud.edu,Schleswig-Holstein,China,0,7483,"244-6010 Ut, St.",9
Roanna Britt,1-200-751-4139,fermentum@protonmail.couk,Munster,Pakistan,7,2374,679-4970 Tristique Ave,17
Roary Rogers,1-208-727-4082,ipsum.nunc@aol.org,Delta,Italy,1,22684,Ap #136-3610 Ultricies Rd.,1
Robert Mckenzie,(409) 574-5443,mauris.ipsum@protonmail.net,Kentucky,Netherlands,1,9604,Ap #566-1283 Nunc. Avenue,17
Rogan Buckley,1-777-490-8846,id.libero@icloud.edu,Cajamarca,Belgium,8,68895,785-5389 Neque Street,9
Rose Craft,(688) 224-3533,neque@hotmail.edu,Podkarpackie,Pakistan,7,55-61,Ap #956-1112 Tempus Avenue,17
Ruby Bonner,1-540-527-4928,sagittis.felis@outlook.ca,Kon Tum,Netherlands,0,84747,Ap #699-7483 Vel Street,15
Rudyard Ratliff,1-276-235-5784,quisque.nonummy@icloud.couk,Ceará,New Zealand,7,10415,162-9107 Feugiat Street,3
Russell Yates,(454) 336-7310,cursus.et@protonmail.org,Utah,South Korea,9,513163,Ap #810-3896 Ac Road,11
Ruth Hansen,1-752-357-8486,non.lacinia.at@yahoo.com,Gangwon,China,10,L7 0HF,Ap #819-7110 Ut Ave,13
Ryder Hobbs,(968) 954-0243,quisque@protonmail.couk,Hà Giang,Canada,9,53344,780-3125 Mi Avenue,5
Ryder Pennington,(532) 721-7297,fames.ac@google.ca,Maharastra,Chile,6,70763,"P.O. Box 796, 3641 Est Ave",19
Sade Aguilar,1-659-276-0584,suscipit.est.ac@yahoo.edu,Xīnán,China,6,07538,"P.O. Box 926, 4328 Non, Rd.",3
Sandra Acosta,1-184-716-1482,nascetur.ridiculus@protonmail.com,Georgia,Turkey,5,47224-778,Ap #339-8673 Ut Avenue,13
Savannah Acevedo,1-853-944-4156,luctus.vulputate.nisi@google.com,Tuyên Quang,United States,1,6527,Ap #925-6952 Tristique Ave,9
Sawyer Clemons,1-921-825-4140,mi.duis@protonmail.org,Gelderland,Nigeria,5,11005,Ap #614-2769 Congue. Rd.,7
Scarlet Burke,1-643-513-8254,magna@aol.couk,Tyrol,United States,1,42211-277,"573-2769 Eu, Road",9
Scott Gallagher,1-806-703-9351,ac@aol.ca,North Chungcheong,Colombia,3,71964-40223,"P.O. Box 351, 4264 Viverra. Rd.",9
Selma Marquez,(887) 958-1855,nunc.risus.varius@yahoo.com,Jeju,Spain,8,879921,Ap #453-3330 Eu Ave,15
Selma Meyers,1-513-974-7545,etiam.ligula@yahoo.edu,Somerset,Italy,4,0547,Ap #486-3516 Facilisis St.,11
September Knapp,(789) 237-7466,etiam.gravida@google.com,Central Luzon,Norway,3,935886,272-1523 Dolor Av.,11
September Shepherd,(483) 560-6256,nam@google.couk,Putumayo,Russian Federation,1,866461,Ap #835-8492 Pharetra Avenue,13
Serena Reese,(988) 617-1471,consectetuer.adipiscing@protonmail.org,Champagne-Ardenne,Russian Federation,9,01138-62327,"P.O. Box 560, 6145 Molestie Avenue",3
Shad Sampson,(838) 776-1167,lorem@aol.ca,Pskov Oblast,Russian Federation,7,76-821,Ap #684-9670 Fermentum Rd.,3
Shaeleigh Silva,(879) 717-3692,nunc@aol.com,Sląskie,Austria,4,13324,841-1174 Donec Avenue,19
Shaine Larsen,1-413-211-6149,fringilla@icloud.com,Rivne oblast,Australia,3,265648,989-3322 Ipsum Rd.,15
Shana Jackson,(655) 355-2161,pede.suspendisse@protonmail.ca,Gilgit Baltistan,Germany,5,14028,586-2661 Urna Rd.,13
Sheila Clements,(633) 771-1184,mauris.non.dui@aol.com,Noord Holland,France,7,79208,Ap #265-9974 Egestas Ave,3
Shellie Griffin,(560) 540-1345,non.arcu@hotmail.couk,Minas Gerais,Germany,9,0185,"P.O. Box 935, 624 Ullamcorper Road",19
Shoshana Howell,1-434-895-6657,auctor.velit@icloud.org,Catalunya,Brazil,7,6388 JY,495-205 Mauris Road,9
Shoshana Manning,1-562-874-4372,sed.dictum.proin@icloud.org,Bengkulu,Australia,6,8235 LI,"P.O. Box 655, 7629 Donec St.",15
Sierra Acevedo,(703) 721-2974,augue.ac.ipsum@aol.edu,Idaho,France,5,723446,Ap #881-4129 Turpis Street,1
Simon Russo,1-335-263-0345,vitae.aliquet.nec@google.ca,Vlaams-Brabant,South Korea,7,1313,"P.O. Box 828, 7633 Quisque Rd.",1
Solomon Peters,(160) 206-5459,purus@google.edu,Vladimir Oblast,Australia,3,96432,"6169 Eu, St.",15
Sonia Reynolds,1-931-813-8634,amet@aol.net,Munster,Russian Federation,10,682074,671 Posuere St.,19
Sonya Drake,(824) 211-1150,cras.convallis.convallis@yahoo.edu,Niger,Colombia,9,821376,Ap #263-5710 Euismod Street,1
Sonya Lang,(754) 333-7183,cum.sociis@outlook.org,Xīběi,Italy,7,3181,"P.O. Box 530, 5057 Mi Road",1
Steel Thompson,1-541-685-5805,sit.amet.luctus@hotmail.couk,Vinnytsia oblast,Costa Rica,0,26054-50906,Ap #690-1755 Enim. Rd.,7
Stone Porter,1-121-325-1076,purus@hotmail.net,Junín,Ireland,2,8278,"667-5148 Et, St.",9
Stuart Stout,1-323-210-4270,interdum.nunc.sollicitudin@outlook.org,Alaska,Mexico,10,82016-437,Ap #242-2946 Ornare St.,3
Suki Giles,1-881-982-8119,quam@icloud.couk,South Gyeongsang,Singapore,3,328843,"384-1497 Magna, Av.",15
Suki Wilson,(397) 483-6134,et.netus.et@icloud.net,Washington,Peru,6,3747,Ap #581-1003 Mi Street,17
Sybil Vazquez,1-759-711-5238,vitae.orci@aol.couk,Nordland,Australia,2,41299,"P.O. Box 415, 5131 Adipiscing Av.",1
Sydney Burt,(787) 206-8148,adipiscing.elit.aliquam@outlook.edu,Thừa Thiên–Huế,Spain,10,863547,143-6109 Ultrices St.,3
Sydney Horn,(347) 842-2514,cursus@aol.couk,Swiętokrzyskie,United States,6,14185-953,"P.O. Box 735, 351 Et Rd.",7
Sydney Tran,1-951-264-1418,convallis.dolor.quisque@hotmail.com,Agder,Australia,2,301315,Ap #720-7802 Arcu Street,19
Sylvester Nelson,1-988-267-4045,condimentum@protonmail.ca,Piura,Indonesia,7,1526,Ap #986-3709 Nisl. St.,15
TaShya Campbell,1-472-783-2748,eget.volutpat@outlook.ca,Southwestern Tagalog Region,Belgium,1,17298,Ap #227-5543 Tempus St.,19
Tad Barrett,1-716-874-6513,nulla.cras@yahoo.ca,Madrid,Philippines,7,57815,869-9723 Felis. St.,17
Tanek Doyle,1-334-635-7103,magna@google.org,Manisa,Canada,6,703895,4010 Ut St.,13
Tanya Franco,(540) 914-8433,nunc.mauris@hotmail.com,South Island,Germany,6,48575,922 Integer Street,11
Tara Buck,1-547-857-0384,vulputate.mauris.sagittis@aol.com,Stockholms län,France,1,HH42 9PE,Ap #303-822 Dictum Rd.,5
Tarik Vinson,1-165-383-8755,sapien.molestie.orci@hotmail.com,Special Capital Region of Jakarta,Turkey,1,95675,Ap #516-1222 Nam St.,7
Tasha Burns,(774) 883-2168,nibh.phasellus@hotmail.com,Bangka Belitung Islands,Norway,5,6223,"P.O. Box 923, 7114 Porttitor Avenue",19
Tate George,(926) 591-7497,cubilia@protonmail.edu,Jönköpings län,Vietnam,8,215887,Ap #919-5827 Proin St.,11
Tatyana Vargas,(246) 896-3349,laoreet@hotmail.org,Odisha,Mexico,7,69-73,809-2508 Et St.,7
Tatyana West,(867) 774-5596,aliquam.ultrices@aol.com,Central Region,Peru,6,9163,"4163 Est, Road",9
Teagan Clayton,(591) 282-5177,dolor@aol.edu,Ilocos Region,South Korea,2,1608,"P.O. Box 729, 6579 Donec Rd.",11
Teegan Reilly,1-342-296-1028,elit.pellentesque@aol.com,Languedoc-Roussillon,Ireland,2,62118,"P.O. Box 143, 7206 Venenatis Rd.",11
Thaddeus Vance,1-978-654-3104,sem.magna.nec@hotmail.edu,Eastern Visayas,Ireland,1,48879,673-5894 Faucibus Rd.,7
Thane Dixon,(482) 947-3118,maecenas@yahoo.org,Maryland,Canada,1,1153,1020 Egestas. Rd.,5
Theodore Roy,(224) 862-5652,nisi.aenean.eget@hotmail.net,North-East Region,China,2,561275,"251-7089 Aliquam, Avenue",5
Todd Watkins,1-456-309-6434,ut.erat.sed@aol.couk,Ilocos Region,United States,1,425976,"P.O. Box 698, 9151 Lorem, Street",13
Tucker Callahan,1-286-684-9878,nascetur.ridiculus.mus@google.couk,Kocaeli,Nigeria,8,T2W 4B4,"P.O. Box 871, 1710 Sed Ave",19
Tucker Foreman,1-382-221-1842,vestibulum.accumsan@yahoo.edu,Castilla - La Mancha,France,3,874737,"P.O. Box 390, 8185 Nunc St.",7
Tyler Thompson,(587) 361-5803,sed.dui@google.couk,Connacht,China,1,AO9A 1GC,"P.O. Box 855, 7710 Enim Street",3
Uma Forbes,1-844-262-1912,eu.metus.in@google.net,Lima,Nigeria,5,74752-791,777-9102 Sem St.,19
Uriel Kirkland,(437) 250-4556,morbi@icloud.couk,South Sumatra,Vietnam,8,2241 QY,2956 Rutrum Avenue,9
Uriel Mcconnell,(742) 572-3642,cursus@hotmail.net,North Island,Poland,9,15138,907-9152 Imperdiet Road,15
Ursa Sawyer,1-916-501-2953,odio.sagittis@hotmail.org,Hidalgo,Colombia,0,44966-822,458-6230 Et Avenue,9
Vaughan Holt,1-253-422-6145,risus.morbi@yahoo.ca,Burgenland,Indonesia,1,826577,"P.O. Box 358, 1800 Sagittis Rd.",13
Vaughan Mullen,(766) 315-4788,proin.nisl@icloud.net,Overijssel,United Kingdom,7,83-56,Ap #447-8882 Amet Rd.,17
Veda Jackson,(277) 180-6251,cubilia.curae@hotmail.org,Istanbul,France,7,45805,288-4165 Nunc St.,15
Veda Spence,1-360-806-2458,felis.eget@aol.net,Louisiana,Ukraine,2,7647,"Ap #581-4046 Ultrices, St.",9
Vera Hayden,(627) 482-4443,nec@hotmail.ca,Carinthia,Chile,1,90088,"P.O. Box 658, 2829 Vel, St.",5
Vera Whitney,(846) 284-2145,sapien.molestie.orci@aol.org,Huila,Vietnam,0,1810,"P.O. Box 310, 379 Fringilla Street",7
Victoria Griffin,1-657-444-6058,odio.semper.cursus@icloud.edu,New Brunswick,Turkey,10,7226,"Ap #969-4835 Rutrum, Avenue",9
Victoria Montgomery,1-831-782-6378,nascetur.ridiculus@hotmail.com,Soccsksargen,Turkey,3,7915,199-2647 Aliquam Rd.,1
Virginia Santiago,(833) 328-4345,imperdiet.erat@protonmail.net,Limón,Philippines,3,88607-14345,"308-3289 Lorem, Rd.",19
Vladimir Hamilton,1-625-712-3317,amet@outlook.edu,Michoacán,Canada,6,7175,Ap #212-1899 Eu St.,17
Wade Gallagher,1-312-497-7266,et@icloud.couk,South Chungcheong,Peru,7,O2I 9LR,Ap #568-3803 Egestas Road,17
Walker Carney,(406) 523-0547,ac.mattis.ornare@icloud.edu,Hessen,Turkey,5,17018,"717-4717 Vel, Avenue",13
Walker Lane,1-165-853-5838,feugiat@icloud.edu,Kahramanmaraş,Mexico,10,75195,"P.O. Box 885, 9600 Ultrices. Street",11
Warren Manning,(857) 944-7598,nunc.pulvinar@protonmail.ca,Soccsksargen,Germany,5,672045,"P.O. Box 101, 4686 Sed Rd.",15
Wayne Little,1-841-777-2624,molestie.orci.tincidunt@yahoo.edu,East Region,Sweden,7,97971-12263,"P.O. Box 338, 5190 Conubia St.",7
Wayne Oneal,(177) 932-5643,lobortis@icloud.edu,Khyber Pakhtoonkhwa,Turkey,10,281778,9468 At Avenue,9
Wendy Parks,(244) 786-2462,nunc@icloud.com,Vichada,Peru,4,889421,"P.O. Box 757, 5482 Donec Av.",3
Whoopi Horn,(453) 744-8301,cras.vehicula.aliquet@outlook.edu,Zhōngnán,South Africa,6,Y8Y 6P3,"P.O. Box 629, 1686 Parturient St.",19
Wilma Mccarthy,(760) 874-9749,nec.mollis@aol.couk,Tyumen Oblast,Poland,10,89835,"P.O. Box 858, 3854 Tempus, Road",7
Wing Romero,(357) 287-6986,feugiat@protonmail.ca,Huádōng,Italy,1,132615,5972 Accumsan Av.,9
Winter Harrison,(742) 838-2124,varius@protonmail.couk,Östergötlands län,Turkey,1,65286,"P.O. Box 832, 9584 Venenatis Avenue",19
Xandra Walter,(673) 572-9143,nullam.vitae@outlook.org,Arizona,India,5,13244,5648 Lorem Rd.,9
Xanthus Ochoa,(645) 207-7505,scelerisque.sed.sapien@google.edu,South Island,Chile,1,73611,3632 Pharetra. Road,15
Xanthus Schroeder,(979) 985-5598,nulla.interdum@google.com,Östergötlands län,Singapore,10,95893,Ap #789-7635 Risus. Av.,11
Xyla Reed,1-873-677-6565,a@protonmail.com,Ulster,Belgium,2,740131,Ap #538-6557 Libero Avenue,19
Yasir Cortez,1-364-220-5370,vestibulum@hotmail.edu,Saarland,Australia,5,6328,Ap #497-8467 Nibh. Road,1
Yetta Rodgers,(336) 939-4587,nostra@hotmail.couk,Bangsamoro,Philippines,7,11865-85017,745-6489 Cras Av.,3
Yvonne Jordan,1-646-812-0732,nonummy.ut@hotmail.com,Arequipa,Indonesia,2,166618,602-7559 Penatibus Av.,15
Zenia Finch,(656) 321-4782,neque.nullam.ut@protonmail.couk,Cusco,Belgium,2,7488,Ap #206-7488 Libero. Road,15
Zenia Quinn,(604) 768-5433,nonummy.fusce@outlook.couk,Chernihiv oblast,Colombia,5,134273,Ap #418-3264 In Road,9
Zoe Vargas,1-354-378-6164,lacus.ut@google.net,łódzkie,Italy,3,8341,"Ap #167-9507 Elit, Road",11
